[{"OBJECT_NAME":"HELIOS 1B","OBJECT_ID":"1999-064A","EPOCH":"2026-03-21T13:13:45.282720","MEAN_MOTION":14.87742957,"ECCENTRICITY":0.00021422,"INCLINATION":98.1682,"RA_OF_ASC_NODE":343.1425,"ARG_OF_PERICENTER":58.4287,"MEAN_ANOMALY":301.7137,"EPHEMERIS_TYPE":0,"CLASSIFICATION_TYPE":"U","NORAD_CAT_ID":25977,"ELEMENT_SET_NO":999,"REV_AT_EPOCH":68702,"BSTAR":0.00019259508,"MEAN_MOTION_DOT":1.698e-5,"MEAN_MOTION_DDOT":0},{"OBJECT_NAME":"TERRA","OBJECT_ID":"1999-068A","EPOCH":"2026-03-21T13:58:14.196000","MEAN_MOTION":14.61026713,"ECCENTRICITY":0.00033478,"INCLINATION":97.9568,"RA_OF_ASC_NODE":133.5611,"ARG_OF_PERICENTER":126.0418,"MEAN_ANOMALY":33.6676,"EPHEMERIS_TYPE":0,"CLASSIFICATION_TYPE":"U","NORAD_CAT_ID":25994,"ELEMENT_SET_NO":999,"REV_AT_EPOCH":39681,"BSTAR":9.4868494e-5,"MEAN_MOTION_DOT":4.21e-6,"MEAN_MOTION_DDOT":0},{"OBJECT_NAME":"SL-16 R/B","OBJECT_ID":"2000-006B","EPOCH":"2026-03-21T09:17:46.620096","MEAN_MOTION":14.15823632,"ECCENTRICITY":0.00161492,"INCLINATION":71.0006,"RA_OF_ASC_NODE":73.2385,"ARG_OF_PERICENTER":171.8174,"MEAN_ANOMALY":188.3216,"EPHEMERIS_TYPE":0,"CLASSIFICATION_TYPE":"U","NORAD_CAT_ID":26070,"ELEMENT_SET_NO":999,"REV_AT_EPOCH":35021,"BSTAR":1.5847971e-5,"MEAN_MOTION_DOT":-1.7e-7,"MEAN_MOTION_DDOT":0},{"OBJECT_NAME":"TITAN 4B R/B","OBJECT_ID":"2000-047B","EPOCH":"2026-03-21T13:21:00.877824","MEAN_MOTION":15.09671421,"ECCENTRICITY":0.00393137,"INCLINATION":67.9918,"RA_OF_ASC_NODE":7.14,"ARG_OF_PERICENTER":21.4115,"MEAN_ANOMALY":338.8667,"EPHEMERIS_TYPE":0,"CLASSIFICATION_TYPE":"U","NORAD_CAT_ID":26474,"ELEMENT_SET_NO":999,"REV_AT_EPOCH":39470,"BSTAR":0.00030935565,"MEAN_MOTION_DOT":4.95e-5,"MEAN_MOTION_DDOT":0},{"OBJECT_NAME":"ENVISAT","OBJECT_ID":"2002-009A","EPOCH":"2026-03-21T12:17:23.414784","MEAN_MOTION":14.39040994,"ECCENTRICITY":0.00012765,"INCLINATION":98.3748,"RA_OF_ASC_NODE":33.8292,"ARG_OF_PERICENTER":81.8145,"MEAN_ANOMALY":32.3594,"EPHEMERIS_TYPE":0,"CLASSIFICATION_TYPE":"U","NORAD_CAT_ID":27386,"ELEMENT_SET_NO":999,"REV_AT_EPOCH":26087,"BSTAR":5.3321391e-5,"MEAN_MOTION_DOT":1.22e-6,"MEAN_MOTION_DDOT":0},{"OBJECT_NAME":"IDEFIX & ARIANE 42P R/B","OBJECT_ID":"2002-021B","EPOCH":"2026-03-21T14:12:27.322560","MEAN_MOTION":14.31033848,"ECCENTRICITY":0.00122663,"INCLINATION":98.5883,"RA_OF_ASC_NODE":19.0569,"ARG_OF_PERICENTER":147.561,"MEAN_ANOMALY":212.633,"EPHEMERIS_TYPE":0,"CLASSIFICATION_TYPE":"U","NORAD_CAT_ID":27422,"ELEMENT_SET_NO":999,"REV_AT_EPOCH":24572,"BSTAR":0.00011615217,"MEAN_MOTION_DOT":2.62e-6,"MEAN_MOTION_DDOT":0},{"OBJECT_NAME":"AQUA","OBJECT_ID":"2002-022A","EPOCH":"2026-03-21T14:13:23.665728","MEAN_MOTION":14.62003536,"ECCENTRICITY":8.435e-5,"INCLINATION":98.4196,"RA_OF_ASC_NODE":48.1762,"ARG_OF_PERICENTER":114.5178,"MEAN_ANOMALY":303.7992,"EPHEMERIS_TYPE":0,"CLASSIFICATION_TYPE":"U","NORAD_CAT_ID":27424,"ELEMENT_SET_NO":999,"REV_AT_EPOCH":27047,"BSTAR":0.00020222934,"MEAN_MOTION_DOT":9.65e-6,"MEAN_MOTION_DDOT":0},{"OBJECT_NAME":"CZ-4B R/B","OBJECT_ID":"2002-024C","EPOCH":"2026-03-21T14:53:16.518048","MEAN_MOTION":14.14549827,"ECCENTRICITY":0.00498599,"INCLINATION":98.8812,"RA_OF_ASC_NODE":133.9655,"ARG_OF_PERICENTER":350.3704,"MEAN_ANOMALY":163.0714,"EPHEMERIS_TYPE":0,"CLASSIFICATION_TYPE":"U","NORAD_CAT_ID":27432,"ELEMENT_SET_NO":999,"REV_AT_EPOCH":23092,"BSTAR":4.4892154e-5,"MEAN_MOTION_DOT":4.2e-7,"MEAN_MOTION_DDOT":0},{"OBJECT_NAME":"MIDORI II (ADEOS-II)","OBJECT_ID":"2002-056A","EPOCH":"2026-03-21T10:11:13.060608","MEAN_MOTION":14.29293684,"ECCENTRICITY":0.00010987,"INCLINATION":98.779,"RA_OF_ASC_NODE":38.9846,"ARG_OF_PERICENTER":27.9753,"MEAN_ANOMALY":332.1487,"EPHEMERIS_TYPE":0,"CLASSIFICATION_TYPE":"U","NORAD_CAT_ID":27597,"ELEMENT_SET_NO":999,"REV_AT_EPOCH":21197,"BSTAR":0.0001333184,"MEAN_MOTION_DOT":2.94e-6,"MEAN_MOTION_DDOT":0},{"OBJECT_NAME":"H-2A R/B","OBJECT_ID":"2002-056E","EPOCH":"2026-03-21T12:16:06.226752","MEAN_MOTION":14.33768197,"ECCENTRICITY":0.00711321,"INCLINATION":98.3224,"RA_OF_ASC_NODE":40.4282,"ARG_OF_PERICENTER":125.7612,"MEAN_ANOMALY":346.4038,"EPHEMERIS_TYPE":0,"CLASSIFICATION_TYPE":"U","NORAD_CAT_ID":27601,"ELEMENT_SET_NO":999,"REV_AT_EPOCH":21580,"BSTAR":0.00010960556,"MEAN_MOTION_DOT":2.72e-6,"MEAN_MOTION_DDOT":0},{"OBJECT_NAME":"CZ-4B R/B","OBJECT_ID":"2003-049C","EPOCH":"2026-03-21T13:19:46.418304","MEAN_MOTION":14.55030817,"ECCENTRICITY":0.00478333,"INCLINATION":98.689,"RA_OF_ASC_NODE":75.9267,"ARG_OF_PERICENTER":194.1797,"MEAN_ANOMALY":165.8059,"EPHEMERIS_TYPE":0,"CLASSIFICATION_TYPE":"U","NORAD_CAT_ID":28059,"ELEMENT_SET_NO":999,"REV_AT_EPOCH":18832,"BSTAR":9.6289441e-5,"MEAN_MOTION_DOT":3.69e-6,"MEAN_MOTION_DDOT":0},{"OBJECT_NAME":"CZ-2C R/B","OBJECT_ID":"2004-012C","EPOCH":"2026-03-21T10:28:25.395456","MEAN_MOTION":15.65861385,"ECCENTRICITY":0.00129666,"INCLINATION":97.7193,"RA_OF_ASC_NODE":146.8524,"ARG_OF_PERICENTER":261.6055,"MEAN_ANOMALY":98.3734,"EPHEMERIS_TYPE":0,"CLASSIFICATION_TYPE":"U","NORAD_CAT_ID":28222,"ELEMENT_SET_NO":999,"REV_AT_EPOCH":20611,"BSTAR":0.00081123756,"MEAN_MOTION_DOT":0.00083219,"MEAN_MOTION_DDOT":0},{"OBJECT_NAME":"SL-16 R/B","OBJECT_ID":"2004-021B","EPOCH":"2026-03-21T13:10:22.831968","MEAN_MOTION":14.14593368,"ECCENTRICITY":0.00046241,"INCLINATION":70.9999,"RA_OF_ASC_NODE":207.6046,"ARG_OF_PERICENTER":354.9145,"MEAN_ANOMALY":5.1929,"EPHEMERIS_TYPE":0,"CLASSIFICATION_TYPE":"U","NORAD_CAT_ID":28353,"ELEMENT_SET_NO":999,"REV_AT_EPOCH":12451,"BSTAR":-4.0934718e-5,"MEAN_MOTION_DOT":-1.26e-6,"MEAN_MOTION_DDOT":0},{"OBJECT_NAME":"CZ-4B R/B","OBJECT_ID":"2004-035C","EPOCH":"2026-03-21T13:22:05.727072","MEAN_MOTION":15.29258634,"ECCENTRICITY":0.00300995,"INCLINATION":97.3474,"RA_OF_ASC_NODE":114.6575,"ARG_OF_PERICENTER":287.3238,"MEAN_ANOMALY":72.471,"EPHEMERIS_TYPE":0,"CLASSIFICATION_TYPE":"U","NORAD_CAT_ID":28415,"ELEMENT_SET_NO":999,"REV_AT_EPOCH":18172,"BSTAR":0.00035501257,"MEAN_MOTION_DOT":0.00010141,"MEAN_MOTION_DDOT":0},{"OBJECT_NAME":"CZ-2C R/B","OBJECT_ID":"2004-046B","EPOCH":"2026-03-21T11:25:13.179072","MEAN_MOTION":14.26995946,"ECCENTRICITY":0.01404362,"INCLINATION":98.198,"RA_OF_ASC_NODE":354.7258,"ARG_OF_PERICENTER":119.7757,"MEAN_ANOMALY":241.7478,"EPHEMERIS_TYPE":0,"CLASSIFICATION_TYPE":"U","NORAD_CAT_ID":28480,"ELEMENT_SET_NO":999,"REV_AT_EPOCH":11018,"BSTAR":6.4615688e-5,"MEAN_MOTION_DOT":1.35e-6,"MEAN_MOTION_DDOT":0},{"OBJECT_NAME":"ARIANE 5 R/B","OBJECT_ID":"2004-049H","EPOCH":"2026-03-21T10:07:42.531456","MEAN_MOTION":14.85286277,"ECCENTRICITY":0.00831764,"INCLINATION":98.2644,"RA_OF_ASC_NODE":249.3197,"ARG_OF_PERICENTER":313.6443,"MEAN_ANOMALY":45.7893,"EPHEMERIS_TYPE":0,"CLASSIFICATION_TYPE":"U","NORAD_CAT_ID":28499,"ELEMENT_SET_NO":999,"REV_AT_EPOCH":14753,"BSTAR":8.9302604e-5,"MEAN_MOTION_DOT":7.5e-6,"MEAN_MOTION_DDOT":0},{"OBJECT_NAME":"CZ-2D R/B","OBJECT_ID":"2005-024B","EPOCH":"2026-03-21T13:42:12.091392","MEAN_MOTION":15.61177051,"ECCENTRICITY":0.00037455,"INCLINATION":97.3583,"RA_OF_ASC_NODE":96.1617,"ARG_OF_PERICENTER":12.0563,"MEAN_ANOMALY":348.0783,"EPHEMERIS_TYPE":0,"CLASSIFICATION_TYPE":"U","NORAD_CAT_ID":28738,"ELEMENT_SET_NO":999,"REV_AT_EPOCH":14163,"BSTAR":0.00070469679,"MEAN_MOTION_DOT":0.00059774,"MEAN_MOTION_DDOT":0}]
